SL-16 R/B               
1 22803U 93059B   26066.28888464 -.00000136  00000+0 -43581-4 0  9995
2 22803  70.9925  16.1882 0018657 220.0050 139.9700 14.17232049679195
ARIANE 40 R/B           
1 22830U 93061H   26066.60365872  .00000273  00000+0  11584-3 0  9994
2 22830  98.4920 135.5324 0009577 292.0259  67.9908 14.32859751693809
COSMOS 2278             
1 23087U 94023A   26066.61745169  .00000211  00000+0  13460-3 0  9997
2 23087  71.0549 179.4321 0007885  17.3987 342.7404 14.14378115644517
SL-16 R/B               
1 23088U 94023B   26066.45276744 -.00000203  00000+0 -80168-4 0  9991
2 23088  70.9986  75.5853 0005709 287.8279  72.2221 14.15012695645778
SL-16 R/B               
1 23343U 94074B   26066.63886590  .00000704  00000+0  10094-3 0  9991
2 23343  97.7112  97.5396 0005632 218.2485 255.0878 14.79405578686947
SL-16 R/B               
1 23405U 94077B   26066.22327007 -.00000151  00000+0 -52722-4 0  9994
2 23405  70.9853 357.6772 0003233 215.5878 144.5029 14.15561309615880
ARIANE 40+ R/B          
1 23561U 95021B   26066.17462282  .00000345  00000+0  12380-3 0  9994
2 23561  98.4502 137.6914 0007540 143.1923 270.9056 14.39770077618882
SL-16 R/B               
1 23705U 95058B   26066.58348982  .00000234  00000+0  14417-3 0  9999
2 23705  71.0216 184.6764 0010900 129.5950 230.6138 14.15493957567552
SL-16 R/B               
1 24298U 96051B   26066.61643726  .00000127  00000+0  95367-4 0  9994
2 24298  70.7601 179.6266 0015260 151.1639 209.0327 14.12415067521355
ORBVIEW 2 (SEASTAR)     
1 24883U 97037A   26066.46623321  .00000466  00000+0  17824-3 0  9998
2 24883  98.8563 230.7191 0003133  76.5194 283.6340 14.35493287508152
SL-16 R/B               
1 25400U 98043G   26066.62669882  .00000103  00000+0  61876-4 0  9997
2 25400  98.8251  19.9756 0010323  26.2358 333.9343 14.26049175438695
SL-16 R/B               
1 25407U 98045B   26066.59545231  .00000045  00000+0  46825-4 0  9995
2 25407  71.0114 185.9774 0006614  11.3637 348.7635 14.16189434426800
ISS (ZARYA)             
1 25544U 98067A   26066.51273615  .00014539  00000+0  27602-3 0  9991
2 25544  51.6318  83.1189 0008132 167.0679 193.0520 15.48507964555998
CZ-4B R/B               
1 25732U 99025C   26066.62962063  .00000068  00000+0  53559-4 0  9992
2 25732  98.6631 110.9599 0036861 352.5842 119.9842 14.18264963387872
OKEAN-O                 
1 25860U 99039A   26066.62417100  .00000983  00000+0  13573-3 0  9993
2 25860  97.9447 126.5367 0001289  69.6425 290.4926 14.80332018434086
SL-16 R/B               
1 25861U 99039B   26066.60597997  .00000838  00000+0  11305-3 0  9995
2 25861  97.9970 125.7058 0013456 263.5821  96.3859 14.81728484436559
DELTA 2 R/B             
1 25876U 99041E   26066.60116012  .00001559  00000+0  28881-3 0  9997
2 25876  51.7634 309.6227 0502334 342.2730  16.1212 14.11831973362735
